[
	{
		"OBJECT_NAME": "STARLINK-4493",
		"OBJECT_ID": "2022-101G",
		"EPOCH": "2024-11-03T11:53:16.998432",
		"MEAN_MOTION": 15.08844308,
		"ECCENTRICITY": 0.0001364,
		"INCLINATION": 53.2151,
		"RA_OF_ASC_NODE": 119.1674,
		"ARG_OF_PERICENTER": 95.1127,
		"MEAN_ANOMALY": 265.002,
		"EPHEMERIS_TYPE": 0,
		"CLASSIFICATION_TYPE": "U",
		"NORAD_CAT_ID": 53533,
		"ELEMENT_SET_NO": 999,
		"REV_AT_EPOCH": 12201,
		"BSTAR": 0.00023636,
		"MEAN_MOTION_DOT": 3.476e-5,
		"MEAN_MOTION_DDOT": 0
	},
	{
		"OBJECT_NAME": "STARLINK-4488",
		"OBJECT_ID": "2022-101H",
		"EPOCH": "2024-11-03T04:36:12.898080",
		"MEAN_MOTION": 15.09559309,
		"ECCENTRICITY": 0.0001089,
		"INCLINATION": 53.2153,
		"RA_OF_ASC_NODE": 120.2481,
		"ARG_OF_PERICENTER": 97.2469,
		"MEAN_ANOMALY": 262.8647,
		"EPHEMERIS_TYPE": 0,
		"CLASSIFICATION_TYPE": "U",
		"NORAD_CAT_ID": 53534,
		"ELEMENT_SET_NO": 999,
		"REV_AT_EPOCH": 12197,
		"BSTAR": 0.0010538,
		"MEAN_MOTION_DOT": 0.00016857,
		"MEAN_MOTION_DDOT": 0
	},
	{
		"OBJECT_NAME": "STARLINK-4138",
		"OBJECT_ID": "2022-101J",
		"EPOCH": "2024-11-03T14:58:44.758560",
		"MEAN_MOTION": 15.0884882,
		"ECCENTRICITY": 0.0001484,
		"INCLINATION": 53.2175,
		"RA_OF_ASC_NODE": 118.6008,
		"ARG_OF_PERICENTER": 99.6527,
		"MEAN_ANOMALY": 260.4633,
		"EPHEMERIS_TYPE": 0,
		"CLASSIFICATION_TYPE": "U",
		"NORAD_CAT_ID": 53535,
		"ELEMENT_SET_NO": 999,
		"REV_AT_EPOCH": 12203,
		"BSTAR": 0.00011506,
		"MEAN_MOTION_DOT": 1.544e-5,
		"MEAN_MOTION_DDOT": 0
	},
	{
		"OBJECT_NAME": "STARLINK-4053",
		"OBJECT_ID": "2022-101K",
		"EPOCH": "2024-11-03T14:22:58.379520",
		"MEAN_MOTION": 15.08845214,
		"ECCENTRICITY": 0.0001397,
		"INCLINATION": 53.216,
		"RA_OF_ASC_NODE": 108.6333,
		"ARG_OF_PERICENTER": 98.0943,
		"MEAN_ANOMALY": 262.0207,
		"EPHEMERIS_TYPE": 0,
		"CLASSIFICATION_TYPE": "U",
		"NORAD_CAT_ID": 53536,
		"ELEMENT_SET_NO": 999,
		"REV_AT_EPOCH": 12216,
		"BSTAR": 0.00019846,
		"MEAN_MOTION_DOT": 2.872e-5,
		"MEAN_MOTION_DDOT": 0
	},
	{
		"OBJECT_NAME": "STARLINK-4120",
		"OBJECT_ID": "2022-101L",
		"EPOCH": "2024-11-03T15:00:07.874496",
		"MEAN_MOTION": 15.08846171,
		"ECCENTRICITY": 0.0001338,
		"INCLINATION": 53.2151,
		"RA_OF_ASC_NODE": 118.5657,
		"ARG_OF_PERICENTER": 99.0194,
		"MEAN_ANOMALY": 261.095,
		"EPHEMERIS_TYPE": 0,
		"CLASSIFICATION_TYPE": "U",
		"NORAD_CAT_ID": 53537,
		"ELEMENT_SET_NO": 999,
		"REV_AT_EPOCH": 12203,
		"BSTAR": 0.00044416,
		"MEAN_MOTION_DOT": 6.789e-5,
		"MEAN_MOTION_DDOT": 0
	},
	{
		"OBJECT_NAME": "STARLINK-4118",
		"OBJECT_ID": "2022-101M",
		"EPOCH": "2024-11-03T14:28:17.255136",
		"MEAN_MOTION": 15.08842631,
		"ECCENTRICITY": 0.0001533,
		"INCLINATION": 53.2149,
		"RA_OF_ASC_NODE": 108.6925,
		"ARG_OF_PERICENTER": 109.9121,
		"MEAN_ANOMALY": 250.2036,
		"EPHEMERIS_TYPE": 0,
		"CLASSIFICATION_TYPE": "U",
		"NORAD_CAT_ID": 53538,
		"ELEMENT_SET_NO": 999,
		"REV_AT_EPOCH": 12285,
		"BSTAR": 0.00012875,
		"MEAN_MOTION_DOT": 1.762e-5,
		"MEAN_MOTION_DDOT": 0
	},
	{
		"OBJECT_NAME": "STARLINK-4123",
		"OBJECT_ID": "2022-101N",
		"EPOCH": "2024-11-03T14:53:27.144384",
		"MEAN_MOTION": 15.08849825,
		"ECCENTRICITY": 0.0001482,
		"INCLINATION": 53.215,
		"RA_OF_ASC_NODE": 118.6148,
		"ARG_OF_PERICENTER": 89.9997,
		"MEAN_ANOMALY": 270.1165,
		"EPHEMERIS_TYPE": 0,
		"CLASSIFICATION_TYPE": "U",
		"NORAD_CAT_ID": 53539,
		"ELEMENT_SET_NO": 999,
		"REV_AT_EPOCH": 12203,
		"BSTAR": -1.0638e-5,
		"MEAN_MOTION_DOT": -4.57e-6,
		"MEAN_MOTION_DDOT": 0
	},
	{
		"OBJECT_NAME": "STARLINK-4486",
		"OBJECT_ID": "2022-101P",
		"EPOCH": "2024-11-03T10:25:57.382752",
		"MEAN_MOTION": 15.0884329,
		"ECCENTRICITY": 0.000146,
		"INCLINATION": 53.2167,
		"RA_OF_ASC_NODE": 109.8074,
		"ARG_OF_PERICENTER": 91.3361,
		"MEAN_ANOMALY": 268.7799,
		"EPHEMERIS_TYPE": 0,
		"CLASSIFICATION_TYPE": "U",
		"NORAD_CAT_ID": 53540,
		"ELEMENT_SET_NO": 999,
		"REV_AT_EPOCH": 12282,
		"BSTAR": 0.00016024,
		"MEAN_MOTION_DOT": 2.263e-5,
		"MEAN_MOTION_DDOT": 0
	},
	{
		"OBJECT_NAME": "STARLINK-4485",
		"OBJECT_ID": "2022-101Q",
		"EPOCH": "2024-11-03T11:32:05.892000",
		"MEAN_MOTION": 15.08823666,
		"ECCENTRICITY": 0.0001307,
		"INCLINATION": 53.2152,
		"RA_OF_ASC_NODE": 119.2396,
		"ARG_OF_PERICENTER": 86.0776,
		"MEAN_ANOMALY": 274.0365,
		"EPHEMERIS_TYPE": 0,
		"CLASSIFICATION_TYPE": "U",
		"NORAD_CAT_ID": 53541,
		"ELEMENT_SET_NO": 999,
		"REV_AT_EPOCH": 12270,
		"BSTAR": -6.0058e-5,
		"MEAN_MOTION_DOT": -1.243e-5,
		"MEAN_MOTION_DDOT": 0
	},
	{
		"OBJECT_NAME": "STARLINK-4489",
		"OBJECT_ID": "2022-101R",
		"EPOCH": "2024-11-03T14:12:22.135968",
		"MEAN_MOTION": 15.08862617,
		"ECCENTRICITY": 0.0001599,
		"INCLINATION": 53.2157,
		"RA_OF_ASC_NODE": 108.7423,
		"ARG_OF_PERICENTER": 84.2336,
		"MEAN_ANOMALY": 275.8839,
		"EPHEMERIS_TYPE": 0,
		"CLASSIFICATION_TYPE": "U",
		"NORAD_CAT_ID": 53542,
		"ELEMENT_SET_NO": 999,
		"REV_AT_EPOCH": 12285,
		"BSTAR": -0.000166,
		"MEAN_MOTION_DOT": -2.931e-5,
		"MEAN_MOTION_DDOT": 0
	},
	{
		"OBJECT_NAME": "STARLINK-4297",
		"OBJECT_ID": "2022-101S",
		"EPOCH": "2024-11-03T14:33:35.136288",
		"MEAN_MOTION": 15.08849127,
		"ECCENTRICITY": 0.0001263,
		"INCLINATION": 53.2166,
		"RA_OF_ASC_NODE": 108.7435,
		"ARG_OF_PERICENTER": 99.6228,
		"MEAN_ANOMALY": 260.4907,
		"EPHEMERIS_TYPE": 0,
		"CLASSIFICATION_TYPE": "U",
		"NORAD_CAT_ID": 53543,
		"ELEMENT_SET_NO": 999,
		"REV_AT_EPOCH": 12285,
		"BSTAR": 0.00013089,
		"MEAN_MOTION_DOT": 1.796e-5,
		"MEAN_MOTION_DDOT": 0
	},
	{
		"OBJECT_NAME": "STARLINK-4303",
		"OBJECT_ID": "2022-101T",
		"EPOCH": "2024-11-03T04:29:28.680864",
		"MEAN_MOTION": 15.08841226,
		"ECCENTRICITY": 0.0001365,
		"INCLINATION": 53.2162,
		"RA_OF_ASC_NODE": 110.5597,
		"ARG_OF_PERICENTER": 94.9038,
		"MEAN_ANOMALY": 265.211,
		"EPHEMERIS_TYPE": 0,
		"CLASSIFICATION_TYPE": "U",
		"NORAD_CAT_ID": 53544,
		"ELEMENT_SET_NO": 999,
		"REV_AT_EPOCH": 12277,
		"BSTAR": 9.6181e-5,
		"MEAN_MOTION_DOT": 1.243e-5,
		"MEAN_MOTION_DDOT": 0
	},
	{
		"OBJECT_NAME": "STARLINK-4475",
		"OBJECT_ID": "2022-101U",
		"EPOCH": "2024-11-03T14:17:40.838784",
		"MEAN_MOTION": 15.08850771,
		"ECCENTRICITY": 0.000137,
		"INCLINATION": 53.2154,
		"RA_OF_ASC_NODE": 108.7265,
		"ARG_OF_PERICENTER": 93.1856,
		"MEAN_ANOMALY": 266.9293,
		"EPHEMERIS_TYPE": 0,
		"CLASSIFICATION_TYPE": "U",
		"NORAD_CAT_ID": 53545,
		"ELEMENT_SET_NO": 999,
		"REV_AT_EPOCH": 12285,
		"BSTAR": 0.00028319,
		"MEAN_MOTION_DOT": 4.223e-5,
		"MEAN_MOTION_DDOT": 0
	},
	{
		"OBJECT_NAME": "STARLINK-4477",
		"OBJECT_ID": "2022-101V",
		"EPOCH": "2024-11-03T14:24:13.847328",
		"MEAN_MOTION": 15.08845142,
		"ECCENTRICITY": 0.0001235,
		"INCLINATION": 53.2161,
		"RA_OF_ASC_NODE": 98.2369,
		"ARG_OF_PERICENTER": 94.5248,
		"MEAN_ANOMALY": 265.5885,
		"EPHEMERIS_TYPE": 0,
		"CLASSIFICATION_TYPE": "U",
		"NORAD_CAT_ID": 53546,
		"ELEMENT_SET_NO": 999,
		"REV_AT_EPOCH": 12231,
		"BSTAR": 0.00024278,
		"MEAN_MOTION_DOT": 3.579e-5,
		"MEAN_MOTION_DDOT": 0
	},
	{
		"OBJECT_NAME": "STARLINK-4474",
		"OBJECT_ID": "2022-101W",
		"EPOCH": "2024-11-03T14:07:03.835776",
		"MEAN_MOTION": 15.08884721,
		"ECCENTRICITY": 9.84e-5,
		"INCLINATION": 53.2146,
		"RA_OF_ASC_NODE": 108.7587,
		"ARG_OF_PERICENTER": 98.4068,
		"MEAN_ANOMALY": 261.7036,
		"EPHEMERIS_TYPE": 0,
		"CLASSIFICATION_TYPE": "U",
		"NORAD_CAT_ID": 53547,
		"ELEMENT_SET_NO": 999,
		"REV_AT_EPOCH": 12283,
		"BSTAR": 0.0013492,
		"MEAN_MOTION_DOT": 0.00021276,
		"MEAN_MOTION_DDOT": 0
	}
]
