STARLINK-4493           
1 53533U 22101G   24308.49533563  .00003476  00000+0  23636-3 0  9992
2 53533  53.2151 119.1674 0001364  95.1127 265.0020 15.08844308122018
STARLINK-4488           
1 53534U 22101H   24308.19181595  .00016857  00000+0  10538-2 0  9997
2 53534  53.2153 120.2481 0001089  97.2469 262.8647 15.09559309121975
STARLINK-4138           
1 53535U 22101J   24308.62412915  .00001544  00000+0  11506-3 0  9993
2 53535  53.2175 118.6008 0001484  99.6527 260.4633 15.08848820122031
STARLINK-4053           
1 53536U 22101K   24308.59928680  .00002872  00000+0  19846-3 0  9991
2 53536  53.2160 108.6333 0001397  98.0943 262.0207 15.08845214122167
STARLINK-4120           
1 53537U 22101L   24308.62509114  .00006789  00000+0  44416-3 0  9995
2 53537  53.2151 118.5657 0001338  99.0194 261.0950 15.08846171122034
STARLINK-4118           
1 53538U 22101M   24308.60297749  .00001762  00000+0  12875-3 0  9992
2 53538  53.2149 108.6925 0001533 109.9121 250.2036 15.08842631122850
STARLINK-4123           
1 53539U 22101N   24308.62045306 -.00000457  00000+0 -10638-4 0  9993
2 53539  53.2150 118.6148 0001482  89.9997 270.1165 15.08849825122038
STARLINK-4486           
1 53540U 22101P   24308.43469193  .00002263  00000+0  16024-3 0  9997
2 53540  53.2167 109.8074 0001460  91.3361 268.7799 15.08843290122829
STARLINK-4485           
1 53541U 22101Q   24308.48062375 -.00001243  00000+0 -60058-4 0  9990
2 53541  53.2152 119.2396 0001307  86.0776 274.0365 15.08823666122708
STARLINK-4489           
1 53542U 22101R   24308.59192287 -.00002931  00000+0 -16600-3 0  9997
2 53542  53.2157 108.7423 0001599  84.2336 275.8839 15.08862617122853
STARLINK-4297           
1 53543U 22101S   24308.60665667  .00001796  00000+0  13089-3 0  9991
2 53543  53.2166 108.7435 0001263  99.6228 260.4907 15.08849127122852
STARLINK-4303           
1 53544U 22101T   24308.18713751  .00001243  00000+0  96181-4 0  9995
2 53544  53.2162 110.5597 0001365  94.9038 265.2110 15.08841226122771
STARLINK-4475           
1 53545U 22101U   24308.59561156  .00004223  00000+0  28319-3 0  9999
2 53545  53.2154 108.7265 0001370  93.1856 266.9293 15.08850771122853
STARLINK-4477           
1 53546U 22101V   24308.60016027  .00003579  00000+0  24278-3 0  9997
2 53546  53.2161  98.2369 0001235  94.5248 265.5885 15.08845142122319
STARLINK-4474           
1 53547U 22101W   24308.58823884  .00021276  00000+0  13492-2 0  9991
2 53547  53.2146 108.7587 0000984  98.4068 261.7036 15.08884721122834
